[
    {
        "Altitude(m)": 624792.7979258086,
        "Argument of Periapsis(deg)": 0.0,
        "Eccentricity": 0.0,
        "Inclination(deg)": 60.0,
        "Latitude(deg)": -59.14716595163127,
        "Longitude(deg)": -125.97372044183892,
        "Mean Anomaly(deg)": 261.8182,
        "RAAN(deg)": 80.0,
        "Satellite Name": "Test1 368",
        "Satellite Number": 368,
        "Semi-Major Axis(m)": 6980739.136638005,
        "Time(s)": 0
    },
    {
        "Altitude(m)": 624842.1903644251,
        "Argument of Periapsis(deg)": 0.00010418945913296404,
        "Eccentricity": 0.0,
        "Inclination(deg)": 60.0,
        "Latitude(deg)": -59.289250979496266,
        "Longitude(deg)": -124.84421445475625,
        "Mean Anomaly(deg)": 262.43830614546187,
        "RAAN(deg)": 79.99957995086025,
        "Satellite Name": "Test1 368",
        "Satellite Number": 368,
        "Semi-Major Axis(m)": 6980739.136638005,
        "Time(s)": 10
    }
]